{"type": "FeatureCollection", "features": [ {"type": "Feature", "properties": {"norad_id": 45358, "name": "COSMOS 2545 (760)", "group": "glo-ops", "lat": 12.278365434482373, "lon": 133.13888331272858, "alt_km": 19124.955614584476, "timestamp": "2025-12-08T10:52:03.208643+00:00", "meta": {"OBJECT_NAME": "COSMOS 2545 (760)", "OBJECT_ID": "2020-018A", "EPOCH": "2025-12-07T07:07:55.705728", "MEAN_MOTION": 2.13102386, "ECCENTRICITY": 0.00117441, "INCLINATION": 64.4728, "RA_OF_ASC_NODE": 319.1607, "ARG_OF_PERICENTER": 249.0045, "MEAN_ANOMALY": 110.8633, "EPHEMERIS_TYPE": 0, "CLASSIFICATION_TYPE": "U", "NORAD_CAT_ID": 45358, "ELEMENT_SET_NO": 999, "REV_AT_EPOCH": 4457, "BSTAR": 0, "MEAN_MOTION_DOT": -5e-07, "MEAN_MOTION_DDOT": 0}, "tle": {"line1": "1 45358U 20018A   25341.29717252 -.00000050  00000+0  00000+0 0  9990", "line2": "2 45358  64.4728 319.1607 0011744 249.0045 110.8633  2.13102386 44574"}}, "geometry": {"type": "Point", "coordinates": [133.13888331272858, 12.278365434482373]}}, {"type": "Feature", "properties": {"norad_id": 46805, "name": "COSMOS 2547 (705K)", "group": "glo-ops", "lat": 20.022039261079236, "lon": -151.18303945808574, "alt_km": 19142.155825962374, "timestamp": "2025-12-08T10:52:03.208655+00:00", "meta": {"OBJECT_NAME": "COSMOS 2547 (705K)", "OBJECT_ID": "2020-075A", "EPOCH": "2025-12-07T11:38:43.890144", "MEAN_MOTION": 2.13099936, "ECCENTRICITY": 0.00062259, "INCLINATION": 64.5959, "RA_OF_ASC_NODE": 198.872, "ARG_OF_PERICENTER": 228.8707, "MEAN_ANOMALY": 131.1578, "EPHEMERIS_TYPE": 0, "CLASSIFICATION_TYPE": "U", "NORAD_CAT_ID": 46805, "ELEMENT_SET_NO": 999, "REV_AT_EPOCH": 3982, "BSTAR": 0, "MEAN_MOTION_DOT": 5.8e-07, "MEAN_MOTION_DDOT": 0}, "tle": {"line1": "1 46805U 20075A   25341.48523021  .00000058  00000+0  00000+0 0  9998", "line2": "2 46805  64.5959 198.8720 0006225 228.8707 131.1578  2.13099936 39827"}}, "geometry": {"type": "Point", "coordinates": [-151.18303945808574, 20.022039261079236]}}, {"type": "Feature", "properties": {"norad_id": 52984, "name": "COSMOS 2557 (706K)", "group": "glo-ops", "lat": -60.73880508196707, "lon": -160.04546343174107, "alt_km": 19103.76919046247, "timestamp": "2025-12-08T10:52:03.208667+00:00", "meta": {"OBJECT_NAME": "COSMOS 2557 (706K)", "OBJECT_ID": "2022-075A", "EPOCH": "2025-12-07T04:21:00.419904", "MEAN_MOTION": 2.13101754, "ECCENTRICITY": 0.00137049, "INCLINATION": 64.4129, "RA_OF_ASC_NODE": 321.247, "ARG_OF_PERICENTER": 276.9, "MEAN_ANOMALY": 82.939, "EPHEMERIS_TYPE": 0, "CLASSIFICATION_TYPE": "U", "NORAD_CAT_ID": 52984, "ELEMENT_SET_NO": 999, "REV_AT_EPOCH": 2662, "BSTAR": 0, "MEAN_MOTION_DOT": -5.2e-07, "MEAN_MOTION_DDOT": 0}, "tle": {"line1": "1 52984U 22075A   25341.18125486 -.00000052  00000+0  00000+0 0  9990", "line2": "2 52984  64.4129 321.2470 0013704 276.9000  82.9390  2.13101754 26625"}}, "geometry": {"type": "Point", "coordinates": [-160.04546343174107, -60.73880508196707]}}, {"type": "Feature", "properties": {"norad_id": 54031, "name": "COSMOS 2559 (707K)", "group": "glo-ops", "lat": 30.406223757010032, "lon": -22.37127426346301, "alt_km": 19154.99216584634, "timestamp": "2025-12-08T10:52:03.208679+00:00", "meta": {"OBJECT_NAME": "COSMOS 2559 (707K)", "OBJECT_ID": "2022-130A", "EPOCH": "2025-12-03T17:10:26.893920", "MEAN_MOTION": 2.13101235, "ECCENTRICITY": 0.00120262, "INCLINATION": 64.3873, "RA_OF_ASC_NODE": 321.4588, "ARG_OF_PERICENTER": 192.7508, "MEAN_ANOMALY": 167.2215, "EPHEMERIS_TYPE": 0, "CLASSIFICATION_TYPE": "U", "NORAD_CAT_ID": 54031, "ELEMENT_SET_NO": 999, "REV_AT_EPOCH": 2452, "BSTAR": 0, "MEAN_MOTION_DOT": -4.4e-07, "MEAN_MOTION_DDOT": 0}, "tle": {"line1": "1 54031U 22130A   25337.71558905 -.00000044  00000+0  00000+0 0  9998", "line2": "2 54031  64.3873 321.4588 0012026 192.7508 167.2215  2.13101235 24525"}}, "geometry": {"type": "Point", "coordinates": [-22.37127426346301, 30.406223757010032]}}, {"type": "Feature", "properties": {"norad_id": 54377, "name": "COSMOS 2564 (761)", "group": "glo-ops", "lat": 23.659378251513722, "lon": 7.104790530053562, "alt_km": 19113.688488266118, "timestamp": "2025-12-08T10:52:03.208690+00:00", "meta": {"OBJECT_NAME": "COSMOS 2564 (761)", "OBJECT_ID": "2022-161A", "EPOCH": "2025-12-06T20:16:19.958016", "MEAN_MOTION": 2.13101987, "ECCENTRICITY": 0.0008674, "INCLINATION": 64.7378, "RA_OF_ASC_NODE": 199.0949, "ARG_OF_PERICENTER": 205.6872, "MEAN_ANOMALY": 154.3558, "EPHEMERIS_TYPE": 0, "CLASSIFICATION_TYPE": "U", "NORAD_CAT_ID": 54377, "ELEMENT_SET_NO": 999, "REV_AT_EPOCH": 2353, "BSTAR": 0, "MEAN_MOTION_DOT": 6.7e-07, "MEAN_MOTION_DDOT": 0}, "tle": {"line1": "1 54377U 22161A   25340.84467544  .00000067  00000+0  00000+0 0  9995", "line2": "2 54377  64.7378 199.0949 0008674 205.6872 154.3558  2.13101987 23535"}}, "geometry": {"type": "Point", "coordinates": [7.104790530053562, 23.659378251513722]}}, {"type": "Feature", "properties": {"norad_id": 57517, "name": "COSMOS 2569 (703K)", "group": "glo-ops", "lat": 32.85096630339702, "lon": -118.28339041403083, "alt_km": 19147.23032343221, "timestamp": "2025-12-08T10:52:03.208701+00:00", "meta": {"OBJECT_NAME": "COSMOS 2569 (703K)", "OBJECT_ID": "2023-114A", "EPOCH": "2025-12-07T19:07:05.035584", "MEAN_MOTION": 2.13103861, "ECCENTRICITY": 0.00103414, "INCLINATION": 65.1916, "RA_OF_ASC_NODE": 79.0806, "ARG_OF_PERICENTER": 287.0255, "MEAN_ANOMALY": 72.8754, "EPHEMERIS_TYPE": 0, "CLASSIFICATION_TYPE": "U", "NORAD_CAT_ID": 57517, "ELEMENT_SET_NO": 999, "REV_AT_EPOCH": 1818, "BSTAR": 0, "MEAN_MOTION_DOT": -1.2e-07, "MEAN_MOTION_DDOT": 0}, "tle": {"line1": "1 57517U 23114A   25341.79658606 -.00000012  00000+0  00000+0 0  9990", "line2": "2 57517  65.1916  79.0806 0010341 287.0255  72.8754  2.13103861 18189"}}, "geometry": {"type": "Point", "coordinates": [-118.28339041403083, 32.85096630339702]}}, {"type": "Feature", "properties": {"norad_id": 63130, "name": "COSMOS 2584 (704K)", "group": "glo-ops", "lat": -44.349186977687424, "lon": -73.57619253696313, "alt_km": 19116.454363200464, "timestamp": "2025-12-08T10:52:03.208713+00:00", "meta": {"OBJECT_NAME": "COSMOS 2584 (704K)", "OBJECT_ID": "2025-042A", "EPOCH": "2025-12-06T17:52:16.826016", "MEAN_MOTION": 2.13102912, "ECCENTRICITY": 0.00075908, "INCLINATION": 64.9729, "RA_OF_ASC_NODE": 79.3502, "ARG_OF_PERICENTER": 215.663, "MEAN_ANOMALY": 144.2957, "EPHEMERIS_TYPE": 0, "CLASSIFICATION_TYPE": "U", "NORAD_CAT_ID": 63130, "ELEMENT_SET_NO": 999, "REV_AT_EPOCH": 594, "BSTAR": 0, "MEAN_MOTION_DOT": -1.5e-07, "MEAN_MOTION_DDOT": 0}, "tle": {"line1": "1 63130U 25042A   25340.74463919 -.00000015  00000+0  00000+0 0  9998", "line2": "2 63130  64.9729  79.3502 0007590 215.6630 144.2957  2.13102912  5943"}}, "geometry": {"type": "Point", "coordinates": [-73.57619253696313, -44.349186977687424]}}, {"type": "Feature", "properties": {"norad_id": 65590, "name": "COSMOS 2596 (708K)", "group": "glo-ops", "lat": -9.876466327083207, "lon": -43.10209321407186, "alt_km": 19106.0877512838, "timestamp": "2025-12-08T10:52:03.208724+00:00", "meta": {"OBJECT_NAME": "COSMOS 2596 (708K)", "OBJECT_ID": "2025-206B", "EPOCH": "2025-12-07T02:40:02.915904", "MEAN_MOTION": 2.13100202, "ECCENTRICITY": 0.00140103, "INCLINATION": 64.7475, "RA_OF_ASC_NODE": 321.6695, "ARG_OF_PERICENTER": 305.1353, "MEAN_ANOMALY": 94.5445, "EPHEMERIS_TYPE": 0, "CLASSIFICATION_TYPE": "U", "NORAD_CAT_ID": 65590, "ELEMENT_SET_NO": 999, "REV_AT_EPOCH": 182, "BSTAR": 0, "MEAN_MOTION_DOT": -5.1e-07, "MEAN_MOTION_DDOT": 0}, "tle": {"line1": "1 65590U 25206B   25341.11114486 -.00000051  00000+0  00000+0 0  9996", "line2": "2 65590  64.7475 321.6695 0014010 305.1353  94.5445  2.13100202  1821"}}, "geometry": {"type": "Point", "coordinates": [-43.10209321407186, -9.876466327083207]}}]}